{"type": "FeatureCollection", "features": [ {"type": "Feature", "properties": {"norad_id": 31931, "name": "FENGYUN 1C DEB", "group": "fengyun-1c-debris", "lat": 25.459394958461306, "lon": 114.59930018201297, "alt_km": 1322.9273084528686, "timestamp": "2025-12-04T13:52:00.727671+00:00", "meta": {"OBJECT_NAME": "FENGYUN 1C DEB", "OBJECT_ID": "1999-025CMG", "EPOCH": "2025-12-02T14:33:38.327904", "MEAN_MOTION": 13.42584114, "ECCENTRICITY": 0.04236639, "INCLINATION": 97.8124, "RA_OF_ASC_NODE": 289.3184, "ARG_OF_PERICENTER": 296.0415, "MEAN_ANOMALY": 59.7684, "EPHEMERIS_TYPE": 0, "CLASSIFICATION_TYPE": "U", "NORAD_CAT_ID": 31931, "ELEMENT_SET_NO": 999, "REV_AT_EPOCH": 65086, "BSTAR": 0.0015604157, "MEAN_MOTION_DOT": 1.474e-05, "MEAN_MOTION_DDOT": 0}, "tle": {"line1": "1 31931U 99025CMG 25336.60669361  .00001474  00000+0  15604-2 0  9991", "line2": "2 31931  97.8124 289.3184 0423663 296.0415  59.7684 13.42584114650863"}}, "geometry": {"type": "Point", "coordinates": [114.59930018201297, 25.459394958461306]}}, {"type": "Feature", "properties": {"norad_id": 31934, "name": "FENGYUN 1C DEB", "group": "fengyun-1c-debris", "lat": -44.79592832861556, "lon": 35.6071335348693, "alt_km": 541.1859701699086, "timestamp": "2025-12-04T13:52:00.727681+00:00", "meta": {"OBJECT_NAME": "FENGYUN 1C DEB", "OBJECT_ID": "1999-025CMK", "EPOCH": "2025-12-03T09:21:19.989216", "MEAN_MOTION": 15.05410401, "ECCENTRICITY": 0.00382336, "INCLINATION": 98.8814, "RA_OF_ASC_NODE": 25.3093, "ARG_OF_PERICENTER": 263.8722, "MEAN_ANOMALY": 95.8144, "EPHEMERIS_TYPE": 0, "CLASSIFICATION_TYPE": "U", "NORAD_CAT_ID": 31934, "ELEMENT_SET_NO": 999, "REV_AT_EPOCH": 60702, "BSTAR": 0.0037072291, "MEAN_MOTION_DOT": 0.00054358, "MEAN_MOTION_DDOT": 0}, "tle": {"line1": "1 31934U 99025CMK 25337.38981469  .00054358  00000+0  37072-2 0  9998", "line2": "2 31934  98.8814  25.3093 0038233 263.8722  95.8144 15.05410401607028"}}, "geometry": {"type": "Point", "coordinates": [35.6071335348693, -44.79592832861556]}}, {"type": "Feature", "properties": {"norad_id": 31937, "name": "FENGYUN 1C DEB", "group": "fengyun-1c-debris", "lat": 70.49445756469025, "lon": -85.63097256468062, "alt_km": 721.1856832570693, "timestamp": "2025-12-04T13:52:00.727691+00:00", "meta": {"OBJECT_NAME": "FENGYUN 1C DEB", "OBJECT_ID": "1999-025CMN", "EPOCH": "2025-12-02T12:38:21.327072", "MEAN_MOTION": 14.7792273, "ECCENTRICITY": 0.01632725, "INCLINATION": 99.2568, "RA_OF_ASC_NODE": 64.6002, "ARG_OF_PERICENTER": 329.3517, "MEAN_ANOMALY": 29.8228, "EPHEMERIS_TYPE": 0, "CLASSIFICATION_TYPE": "U", "NORAD_CAT_ID": 31937, "ELEMENT_SET_NO": 999, "REV_AT_EPOCH": 65918, "BSTAR": 0.00089596607, "MEAN_MOTION_DOT": 7.992e-05, "MEAN_MOTION_DDOT": 0}, "tle": {"line1": "1 31937U 99025CMN 25336.52663573  .00007992  00000+0  89597-3 0  9991", "line2": "2 31937  99.2568  64.6002 0163272 329.3517  29.8228 14.77922730659185"}}, "geometry": {"type": "Point", "coordinates": [-85.63097256468062, 70.49445756469025]}}, {"type": "Feature", "properties": {"norad_id": 31938, "name": "FENGYUN 1C DEB", "group": "fengyun-1c-debris", "lat": -80.10486177962265, "lon": 124.52038809698522, "alt_km": 694.4457373689311, "timestamp": "2025-12-04T13:52:00.727701+00:00", "meta": {"OBJECT_NAME": "FENGYUN 1C DEB", "OBJECT_ID": "1999-025CMP", "EPOCH": "2025-12-03T01:21:45.744480", "MEAN_MOTION": 14.95446744, "ECCENTRICITY": 0.01536631, "INCLINATION": 98.9311, "RA_OF_ASC_NODE": 7.1451, "ARG_OF_PERICENTER": 97.2097, "MEAN_ANOMALY": 264.6618, "EPHEMERIS_TYPE": 0, "CLASSIFICATION_TYPE": "U", "NORAD_CAT_ID": 31938, "ELEMENT_SET_NO": 999, "REV_AT_EPOCH": 98991, "BSTAR": 0.00050086382, "MEAN_MOTION_DOT": 6.944e-05, "MEAN_MOTION_DDOT": 0}, "tle": {"line1": "1 31938U 99025CMP 25337.05677945  .00006944  00000+0  50086-3 0  9996", "line2": "2 31938  98.9311   7.1451 0153663  97.2097 264.6618 14.95446744989910"}}, "geometry": {"type": "Point", "coordinates": [124.52038809698522, -80.10486177962265]}}, {"type": "Feature", "properties": {"norad_id": 31944, "name": "FENGYUN 1C DEB", "group": "fengyun-1c-debris", "lat": 70.05095889119245, "lon": 99.34119883619616, "alt_km": 768.6117470019044, "timestamp": "2025-12-04T13:52:00.727712+00:00", "meta": {"OBJECT_NAME": "FENGYUN 1C DEB", "OBJECT_ID": "1999-025CMV", "EPOCH": "2025-12-03T04:21:09.092736", "MEAN_MOTION": 14.11759082, "ECCENTRICITY": 0.01516662, "INCLINATION": 99.2029, "RA_OF_ASC_NODE": 124.438, "ARG_OF_PERICENTER": 30.7997, "MEAN_ANOMALY": 147.0056, "EPHEMERIS_TYPE": 0, "CLASSIFICATION_TYPE": "U", "NORAD_CAT_ID": 31944, "ELEMENT_SET_NO": 999, "REV_AT_EPOCH": 62775, "BSTAR": 0.00074621414, "MEAN_MOTION_DOT": 1.469e-05, "MEAN_MOTION_DDOT": 0}, "tle": {"line1": "1 31944U 99025CMV 25337.18135524  .00001469  00000+0  74621-3 0  9997", "line2": "2 31944  99.2029 124.4380 0151666  30.7997 147.0056 14.11759082627754"}}, "geometry": {"type": "Point", "coordinates": [99.34119883619616, 70.05095889119245]}}, {"type": "Feature", "properties": {"norad_id": 31945, "name": "FENGYUN 1C DEB", "group": "fengyun-1c-debris", "lat": 25.28718128698941, "lon": -120.92039804330425, "alt_km": 862.1042398949157, "timestamp": "2025-12-04T13:52:00.727722+00:00", "meta": {"OBJECT_NAME": "FENGYUN 1C DEB", "OBJECT_ID": "1999-025CMW", "EPOCH": "2025-11-29T11:26:27.358656", "MEAN_MOTION": 14.20676291, "ECCENTRICITY": 0.00604085, "INCLINATION": 98.9644, "RA_OF_ASC_NODE": 49.6315, "ARG_OF_PERICENTER": 325.8129, "MEAN_ANOMALY": 33.9164, "EPHEMERIS_TYPE": 0, "CLASSIFICATION_TYPE": "U", "NORAD_CAT_ID": 31945, "ELEMENT_SET_NO": 999, "REV_AT_EPOCH": 95007, "BSTAR": 0.0013352556, "MEAN_MOTION_DOT": 2.885e-05, "MEAN_MOTION_DDOT": 0}, "tle": {"line1": "1 31945U 99025CMW 25333.47670554  .00002885  00000+0  13353-2 0  9990", "line2": "2 31945  98.9644  49.6315 0060408 325.8129  33.9164 14.20676291950075"}}, "geometry": {"type": "Point", "coordinates": [-120.92039804330425, 25.28718128698941]}}, {"type": "Feature", "properties": {"norad_id": 31946, "name": "FENGYUN 1C DEB", "group": "fengyun-1c-debris", "lat": 21.37993575969452, "lon": -137.67554644197438, "alt_km": 831.4662035763022, "timestamp": "2025-12-04T13:52:00.727732+00:00", "meta": {"OBJECT_NAME": "FENGYUN 1C DEB", "OBJECT_ID": "1999-025CMX", "EPOCH": "2025-12-03T10:00:15.109920", "MEAN_MOTION": 14.16359084, "ECCENTRICITY": 0.0083398, "INCLINATION": 98.8988, "RA_OF_ASC_NODE": 37.6477, "ARG_OF_PERICENTER": 76.7615, "MEAN_ANOMALY": 284.2845, "EPHEMERIS_TYPE": 0, "CLASSIFICATION_TYPE": "U", "NORAD_CAT_ID": 31946, "ELEMENT_SET_NO": 999, "REV_AT_EPOCH": 63876, "BSTAR": 0.0017748272, "MEAN_MOTION_DOT": 3.603e-05, "MEAN_MOTION_DDOT": 0}, "tle": {"line1": "1 31946U 99025CMX 25337.41684155  .00003603  00000+0  17748-2 0  9992", "line2": "2 31946  98.8988  37.6477 0083398  76.7615 284.2845 14.16359084638766"}}, "geometry": {"type": "Point", "coordinates": [-137.67554644197438, 21.37993575969452]}}, {"type": "Feature", "properties": {"norad_id": 31948, "name": "FENGYUN 1C DEB", "group": "fengyun-1c-debris", "lat": -12.061246926090472, "lon": -143.63238127096008, "alt_km": 816.3180514922924, "timestamp": "2025-12-04T13:52:00.727742+00:00", "meta": {"OBJECT_NAME": "FENGYUN 1C DEB", "OBJECT_ID": "1999-025CMZ", "EPOCH": "2025-12-02T23:07:31.547712", "MEAN_MOTION": 14.28182343, "ECCENTRICITY": 0.00237776, "INCLINATION": 99.3956, "RA_OF_ASC_NODE": 36.6595, "ARG_OF_PERICENTER": 50.177, "MEAN_ANOMALY": 126.8754, "EPHEMERIS_TYPE": 0, "CLASSIFICATION_TYPE": "U", "NORAD_CAT_ID": 31948, "ELEMENT_SET_NO": 999, "REV_AT_EPOCH": 94888, "BSTAR": 0.0019459046, "MEAN_MOTION_DOT": 4.812e-05, "MEAN_MOTION_DDOT": 0}, "tle": {"line1": "1 31948U 99025CMZ 25336.96355958  .00004812  00000+0  19459-2 0  9993", "line2": "2 31948  99.3956  36.6595 0023777  50.1770 126.8754 14.28182343948884"}}, "geometry": {"type": "Point", "coordinates": [-143.63238127096008, -12.061246926090472]}}, {"type": "Feature", "properties": {"norad_id": 31949, "name": "FENGYUN 1C DEB", "group": "fengyun-1c-debris", "lat": -11.88374792846366, "lon": -33.788295463343545, "alt_km": 872.7295800662505, "timestamp": "2025-12-04T13:52:00.727752+00:00", "meta": {"OBJECT_NAME": "FENGYUN 1C DEB", "OBJECT_ID": "1999-025CNA", "EPOCH": "2025-11-23T05:03:27.897984", "MEAN_MOTION": 14.1687356, "ECCENTRICITY": 0.01252295, "INCLINATION": 98.5419, "RA_OF_ASC_NODE": 313.4803, "ARG_OF_PERICENTER": 269.0533, "MEAN_ANOMALY": 89.6292, "EPHEMERIS_TYPE": 0, "CLASSIFICATION_TYPE": "U", "NORAD_CAT_ID": 31949, "ELEMENT_SET_NO": 999, "REV_AT_EPOCH": 95228, "BSTAR": 0.00041514195, "MEAN_MOTION_DOT": 8.56e-06, "MEAN_MOTION_DDOT": 0}, "tle": {"line1": "1 31949U 99025CNA 25327.21073956  .00000856  00000+0  41514-3 0  9999", "line2": "2 31949  98.5419 313.4803 0125229 269.0533  89.6292 14.16873560952288"}}, "geometry": {"type": "Point", "coordinates": [-33.788295463343545, -11.88374792846366]}}, {"type": "Feature", "properties": {"norad_id": 31952, "name": "FENGYUN 1C DEB", "group": "fengyun-1c-debris", "lat": 28.18668308777268, "lon": -80.03886581360707, "alt_km": 791.7294146793829, "timestamp": "2025-12-04T13:52:00.727761+00:00", "meta": {"OBJECT_NAME": "FENGYUN 1C DEB", "OBJECT_ID": "1999-025CND", "EPOCH": "2025-12-04T01:36:07.301952", "MEAN_MOTION": 14.53438816, "ECCENTRICITY": 0.01142254, "INCLINATION": 98.9556, "RA_OF_ASC_NODE": 94.5675, "ARG_OF_PERICENTER": 318.9045, "MEAN_ANOMALY": 40.3586, "EPHEMERIS_TYPE": 0, "CLASSIFICATION_TYPE": "U", "NORAD_CAT_ID": 31952, "ELEMENT_SET_NO": 999, "REV_AT_EPOCH": 97083, "BSTAR": 0.00085057064, "MEAN_MOTION_DOT": 3.805e-05, "MEAN_MOTION_DDOT": 0}, "tle": {"line1": "1 31952U 99025CND 25338.06675118  .00003805  00000+0  85057-3 0  9993", "line2": "2 31952  98.9556  94.5675 0114225 318.9045  40.3586 14.53438816970831"}}, "geometry": {"type": "Point", "coordinates": [-80.03886581360707, 28.18668308777268]}}]}